ONEWEB-0687             
1 61595U 24188B   25070.53477251  .00002808  00000+0  33558-3 0  9991
2 61595  86.5721 109.4006 0006951  86.8590 273.3429 14.83829247 24064
ONEWEB-0688             
1 61596U 24188C   25070.53800162  .00002809  00000+0  33580-3 0  9999
2 61596  86.5731 109.4254 0006479  88.4339 271.7626 14.83831711 24065
ONEWEB-0689             
1 61597U 24188D   25070.91668981  .00000016  00000+0  00000+0 0  9998
2 61597  87.4045 114.1455 0005382  88.1943 191.9793 13.74040927 21896
ONEWEB-0690             
1 61598U 24188E   25070.58335648 -.00767004  00000+0 -54830+0 0  9992
2 61598  87.5300 114.1707 0009822  94.8896  60.2546 14.00197323 21927
ONEWEB-0691             
1 61599U 24188F   25070.83334491  .00000016  00000+0  00000+0 0  9997
2 61599  87.3982 114.1652 0007908  84.2463  98.0056 13.78758353 22057
ONEWEB-0692             
1 61600U 24188G   25070.91668981  .00000016  00000+0  00000+0 0  9993
2 61600  87.4010 114.1579 0004497 106.8903 193.6180 13.77313929 22001
ONEWEB-0693             
1 61601U 24188H   25070.53881523  .00002908  00000+0  34779-3 0  9997
2 61601  86.5644 109.2858 0005165 103.3420 256.8380 14.83832649 24064
ONEWEB-0695             
1 61602U 24188J   25070.91668981  .00000016  00000+0  00000+0 0  9995
2 61602  87.4128 114.1960 0005108  90.4839  63.9873 13.76372512 22025
